CCSDS_OMM_VERS = 2.0
CREATION_DATE  = 
ORIGINATOR     = 

OBJECT_NAME    = ALOS (DAICHI)
OBJECT_ID      = 2006-002A
CENTER_NAME    = EARTH
REF_FRAME      = TEME
TIME_SYSTEM    = UTC
MEAN_ELEMENT_THEORY = SGP/SGP4

EPOCH          = 2026-03-01T21:04:40.888992
MEAN_MOTION    = 14.69779356
ECCENTRICITY   = .0001238
INCLINATION    = 98.1205
RA_OF_ASC_NODE = 16.8737
ARG_OF_PERICENTER = 51.4657
MEAN_ANOMALY   = 308.6660

EPHEMERIS_TYPE = 0
CLASSIFICATION_TYPE = U
NORAD_CAT_ID   = 28931
ELEMENT_SET_NO = 999
REV_AT_EPOCH   = 7233
BSTAR          = .28843E-3
MEAN_MOTION_DOT = .1671E-4
MEAN_MOTION_DDOT = 0

CCSDS_OMM_VERS = 2.0
CREATION_DATE  = 
ORIGINATOR     = 

OBJECT_NAME    = H-2A R/B
OBJECT_ID      = 2006-002B
CENTER_NAME    = EARTH
REF_FRAME      = TEME
TIME_SYSTEM    = UTC
MEAN_ELEMENT_THEORY = SGP/SGP4

EPOCH          = 2026-03-01T08:38:52.371168
MEAN_MOTION    = 15.16205144
ECCENTRICITY   = .005198
INCLINATION    = 98.2387
RA_OF_ASC_NODE = 206.6702
ARG_OF_PERICENTER = 269.7000
MEAN_ANOMALY   = 89.8274

EPHEMERIS_TYPE = 0
CLASSIFICATION_TYPE = U
NORAD_CAT_ID   = 28932
ELEMENT_SET_NO = 999
REV_AT_EPOCH   = 9317
BSTAR          = .57137E-3
MEAN_MOTION_DOT = .11351E-3
MEAN_MOTION_DDOT = 0

CCSDS_OMM_VERS = 2.0
CREATION_DATE  = 
ORIGINATOR     = 

OBJECT_NAME    = RESURS-DK 1
OBJECT_ID      = 2006-021A
CENTER_NAME    = EARTH
REF_FRAME      = TEME
TIME_SYSTEM    = UTC
MEAN_ELEMENT_THEORY = SGP/SGP4

EPOCH          = 2026-03-01T17:35:03.232320
MEAN_MOTION    = 15.12682430
ECCENTRICITY   = .0002546
INCLINATION    = 69.9303
RA_OF_ASC_NODE = 257.6072
ARG_OF_PERICENTER = 166.2959
MEAN_ANOMALY   = 193.8276

EPHEMERIS_TYPE = 0
CLASSIFICATION_TYPE = U
NORAD_CAT_ID   = 29228
ELEMENT_SET_NO = 999
REV_AT_EPOCH   = 8632
BSTAR          = .17944E-3
MEAN_MOTION_DOT = .304E-4
MEAN_MOTION_DDOT = 0

CCSDS_OMM_VERS = 2.0
CREATION_DATE  = 
ORIGINATOR     = 

OBJECT_NAME    = CZ-4B R/B
OBJECT_ID      = 2006-046C
CENTER_NAME    = EARTH
REF_FRAME      = TEME
TIME_SYSTEM    = UTC
MEAN_ELEMENT_THEORY = SGP/SGP4

EPOCH          = 2026-03-01T16:38:02.728032
MEAN_MOTION    = 15.16805114
ECCENTRICITY   = .0031846
INCLINATION    = 97.5612
RA_OF_ASC_NODE = 105.6233
ARG_OF_PERICENTER = 296.4725
MEAN_ANOMALY   = 63.3242

EPHEMERIS_TYPE = 0
CLASSIFICATION_TYPE = U
NORAD_CAT_ID   = 29507
ELEMENT_SET_NO = 999
REV_AT_EPOCH   = 5883
BSTAR          = .27228E-3
MEAN_MOTION_DOT = .5349E-4
MEAN_MOTION_DDOT = 0

CCSDS_OMM_VERS = 2.0
CREATION_DATE  = 
ORIGINATOR     = 

OBJECT_NAME    = CZ-2C R/B
OBJECT_ID      = 2007-010B
CENTER_NAME    = EARTH
REF_FRAME      = TEME
TIME_SYSTEM    = UTC
MEAN_ELEMENT_THEORY = SGP/SGP4

EPOCH          = 2026-03-01T20:03:04.526784
MEAN_MOTION    = 14.20242937
ECCENTRICITY   = .0058122
INCLINATION    = 98.3976
RA_OF_ASC_NODE = 174.5082
ARG_OF_PERICENTER = 317.8616
MEAN_ANOMALY   = 41.8101

EPHEMERIS_TYPE = 0
CLASSIFICATION_TYPE = U
NORAD_CAT_ID   = 31114
ELEMENT_SET_NO = 999
REV_AT_EPOCH   = 97860
BSTAR          = .82977E-4
MEAN_MOTION_DOT = .139E-5
MEAN_MOTION_DDOT = 0

CCSDS_OMM_VERS = 2.0
CREATION_DATE  = 
ORIGINATOR     = 

OBJECT_NAME    = COSMO-SKYMED 1
OBJECT_ID      = 2007-023A
CENTER_NAME    = EARTH
REF_FRAME      = TEME
TIME_SYSTEM    = UTC
MEAN_ELEMENT_THEORY = SGP/SGP4

EPOCH          = 2026-03-01T20:11:35.357280
MEAN_MOTION    = 14.96461762
ECCENTRICITY   = .0000876
INCLINATION    = 97.8867
RA_OF_ASC_NODE = 251.8113
ARG_OF_PERICENTER = 84.4913
MEAN_ANOMALY   = 275.6407

EPHEMERIS_TYPE = 0
CLASSIFICATION_TYPE = U
NORAD_CAT_ID   = 31598
ELEMENT_SET_NO = 999
REV_AT_EPOCH   = 1373
BSTAR          = .32788E-3
MEAN_MOTION_DOT = .3662E-4
MEAN_MOTION_DDOT = 0

CCSDS_OMM_VERS = 2.0
CREATION_DATE  = 
ORIGINATOR     = 

OBJECT_NAME    = COSMOS 2428
OBJECT_ID      = 2007-029A
CENTER_NAME    = EARTH
REF_FRAME      = TEME
TIME_SYSTEM    = UTC
MEAN_ELEMENT_THEORY = SGP/SGP4

EPOCH          = 2026-03-01T19:38:00.156768
MEAN_MOTION    = 14.12943967
ECCENTRICITY   = .000866
INCLINATION    = 70.9418
RA_OF_ASC_NODE = 219.8653
ARG_OF_PERICENTER = 285.5367
MEAN_ANOMALY   = 74.4798

EPHEMERIS_TYPE = 0
CLASSIFICATION_TYPE = U
NORAD_CAT_ID   = 31792
ELEMENT_SET_NO = 999
REV_AT_EPOCH   = 96298
BSTAR          = .78085E-4
MEAN_MOTION_DOT = .98E-6
MEAN_MOTION_DDOT = 0

CCSDS_OMM_VERS = 2.0
CREATION_DATE  = 
ORIGINATOR     = 

OBJECT_NAME    = SL-16 R/B
OBJECT_ID      = 2007-029B
CENTER_NAME    = EARTH
REF_FRAME      = TEME
TIME_SYSTEM    = UTC
MEAN_ELEMENT_THEORY = SGP/SGP4

EPOCH          = 2026-03-01T19:21:11.950848
MEAN_MOTION    = 14.14834314
ECCENTRICITY   = .0002429
INCLINATION    = 70.9755
RA_OF_ASC_NODE = 188.9544
ARG_OF_PERICENTER = 278.7766
MEAN_ANOMALY   = 243.1064

EPHEMERIS_TYPE = 0
CLASSIFICATION_TYPE = U
NORAD_CAT_ID   = 31793
ELEMENT_SET_NO = 999
REV_AT_EPOCH   = 96425
BSTAR          = -.85424E-4
MEAN_MOTION_DOT = -.213E-5
MEAN_MOTION_DDOT = 0

CCSDS_OMM_VERS = 2.0
CREATION_DATE  = 
ORIGINATOR     = 

OBJECT_NAME    = KORONAS-FOTON
OBJECT_ID      = 2009-003A
CENTER_NAME    = EARTH
REF_FRAME      = TEME
TIME_SYSTEM    = UTC
MEAN_ELEMENT_THEORY = SGP/SGP4

EPOCH          = 2026-03-01T15:49:00.421824
MEAN_MOTION    = 15.43091870
ECCENTRICITY   = .0010586
INCLINATION    = 82.4288
RA_OF_ASC_NODE = 284.2272
ARG_OF_PERICENTER = 177.1414
MEAN_ANOMALY   = 182.9895

EPHEMERIS_TYPE = 0
CLASSIFICATION_TYPE = U
NORAD_CAT_ID   = 33504
ELEMENT_SET_NO = 999
REV_AT_EPOCH   = 94450
BSTAR          = .28616E-3
MEAN_MOTION_DOT = .12713E-3
MEAN_MOTION_DDOT = 0

CCSDS_OMM_VERS = 2.0
CREATION_DATE  = 
ORIGINATOR     = 

OBJECT_NAME    = CZ-2C R/B
OBJECT_ID      = 2011-030B
CENTER_NAME    = EARTH
REF_FRAME      = TEME
TIME_SYSTEM    = UTC
MEAN_ELEMENT_THEORY = SGP/SGP4

EPOCH          = 2026-03-01T20:12:06.168384
MEAN_MOTION    = 14.81184752
ECCENTRICITY   = .0053181
INCLINATION    = 97.8528
RA_OF_ASC_NODE = 18.2630
ARG_OF_PERICENTER = 17.5215
MEAN_ANOMALY   = 35.6995

EPHEMERIS_TYPE = 0
CLASSIFICATION_TYPE = U
NORAD_CAT_ID   = 37731
ELEMENT_SET_NO = 999
REV_AT_EPOCH   = 78893
BSTAR          = .26669E-3
MEAN_MOTION_DOT = .2071E-4
MEAN_MOTION_DDOT = 0

CCSDS_OMM_VERS = 2.0
CREATION_DATE  = 
ORIGINATOR     = 

OBJECT_NAME    = H-2A R/B
OBJECT_ID      = 2012-025E
CENTER_NAME    = EARTH
REF_FRAME      = TEME
TIME_SYSTEM    = UTC
MEAN_ELEMENT_THEORY = SGP/SGP4

EPOCH          = 2026-03-01T19:57:23.086944
MEAN_MOTION    = 14.95082823
ECCENTRICITY   = .0044141
INCLINATION    = 98.4706
RA_OF_ASC_NODE = 27.2496
ARG_OF_PERICENTER = 340.1862
MEAN_ANOMALY   = 19.7640

EPHEMERIS_TYPE = 0
CLASSIFICATION_TYPE = U
NORAD_CAT_ID   = 38341
ELEMENT_SET_NO = 999
REV_AT_EPOCH   = 74704
BSTAR          = .43949E-3
MEAN_MOTION_DOT = .4841E-4
MEAN_MOTION_DDOT = 0

CCSDS_OMM_VERS = 2.0
CREATION_DATE  = 
ORIGINATOR     = 

OBJECT_NAME    = SHIJIAN-16 (SJ-16)
OBJECT_ID      = 2013-057A
CENTER_NAME    = EARTH
REF_FRAME      = TEME
TIME_SYSTEM    = UTC
MEAN_ELEMENT_THEORY = SGP/SGP4

EPOCH          = 2026-03-01T20:27:27.364320
MEAN_MOTION    = 14.92294183
ECCENTRICITY   = .0015874
INCLINATION    = 74.9715
RA_OF_ASC_NODE = 199.9234
ARG_OF_PERICENTER = 132.8487
MEAN_ANOMALY   = 227.4038

EPHEMERIS_TYPE = 0
CLASSIFICATION_TYPE = U
NORAD_CAT_ID   = 39358
ELEMENT_SET_NO = 999
REV_AT_EPOCH   = 67033
BSTAR          = .90989E-4
MEAN_MOTION_DOT = .902E-5
MEAN_MOTION_DDOT = 0

